{
    "links": {
        "self": "http://www.neowsapp.com/rest/v1/neo/3698514?api_key=iIulBulltgU6a56xZRHN4H3l9WmuAYTsLGpBGhQ2"
    },
    "id": "3698514",
    "neo_reference_id": "3698514",
    "name": "(2014 HP197)",
    "designation": "2014 HP197",
    "nasa_jpl_url": "http://ssd.jpl.nasa.gov/sbdb.cgi?sstr=3698514",
    "absolute_magnitude_h": 26.2,
    "estimated_diameter": {
        "kilometers": {
            "estimated_diameter_min": 0.0152951935,
            "estimated_diameter_max": 0.0342010925
        },
        "meters": {
            "estimated_diameter_min": 15.2951935344,
            "estimated_diameter_max": 34.201092472
        },
        "miles": {
            "estimated_diameter_min": 0.0095039897,
            "estimated_diameter_max": 0.021251567
        },
        "feet": {
            "estimated_diameter_min": 50.1810827555,
            "estimated_diameter_max": 112.2083122258
        }
    },
    "is_potentially_hazardous_asteroid": false,
    "close_approach_data": [
        {
            "close_approach_date": "2014-05-11",
            "close_approach_date_full": "2014-May-11 22:45",
            "epoch_date_close_approach": 1399848300000,
            "relative_velocity": {
                "kilometers_per_second": "6.1944315789",
                "kilometers_per_hour": "22299.9536838602",
                "miles_per_hour": "13856.3239987297"
            },
            "miss_distance": {
                "astronomical": "0.0869374721",
                "lunar": "33.8186766469",
                "kilometers": "13005660.649344427",
                "miles": "8081342.7906580126"
            },
            "orbiting_body": "Earth"
        },
        {
            "close_approach_date": "2014-10-10",
            "close_approach_date_full": "2014-Oct-10 02:25",
            "epoch_date_close_approach": 1412907900000,
            "relative_velocity": {
                "kilometers_per_second": "5.5626327486",
                "kilometers_per_hour": "20025.4778948953",
                "miles_per_hour": "12443.0531953032"
            },
            "miss_distance": {
                "astronomical": "0.1772792213",
                "lunar": "68.9616170857",
                "kilometers": "26520593.901738631",
                "miles": "16479132.9029938678"
            },
            "orbiting_body": "Earth"
        }
    ],
    "orbital_data": {
        "orbit_id": "4",
        "orbit_determination_date": "2019-07-11 06:01:28",
        "first_observation_date": "2014-04-23",
        "last_observation_date": "2014-04-25",
        "data_arc_in_days": 2,
        "observations_used": 20,
        "orbit_uncertainty": "9",
        "minimum_orbit_intersection": ".0804476",
        "jupiter_tisserand_invariant": "5.321",
        "epoch_osculation": "2456771.5",
        "eccentricity": ".174921246545884",
        "semi_major_axis": "1.183887310827251",
        "inclination": "9.766580335883289",
        "ascending_node_longitude": "32.14095004117819",
        "orbital_period": "470.5047101587424",
        "perihelion_distance": ".9768002666474936",
        "perihelion_argument": "263.2502873998412",
        "aphelion_distance": "1.390974355007008",
        "perihelion_time": "2456853.071921306701",
        "mean_anomaly": "297.5864023539644",
        "mean_motion": ".765135804652286",
        "equinox": "J2000",
        "orbit_class": {
            "orbit_class_type": "APO",
            "orbit_class_description": "Near-Earth asteroid orbits which cross the Earth’s orbit similar to that of 1862 Apollo",
            "orbit_class_range": "a (semi-major axis) > 1.0 AU; q (perihelion) < 1.017 AU"
        }
    },
    "is_sentry_object": false
}